[{"OBJECT_NAME":"STARLINK-6059","OBJECT_ID":"2023-078AZ","EPOCH":"2026-03-09T21:24:17.066016","MEAN_MOTION":14.98328614,"ECCENTRICITY":0.00026337,"INCLINATION":70.0011,"RA_OF_ASC_NODE":343.8217,"ARG_OF_PERICENTER":264.6328,"MEAN_ANOMALY":95.453,"EPHEMERIS_TYPE":0,"CLASSIFICATION_TYPE":"U","NORAD_CAT_ID":56814,"ELEMENT_SET_NO":999,"REV_AT_EPOCH":15271,"BSTAR":2.4703435e-5,"MEAN_MOTION_DOT":2.02e-6,"MEAN_MOTION_DDOT":0},{"OBJECT_NAME":"CZ-6A DEB","OBJECT_ID":"2022-151HP","EPOCH":"2026-03-09T17:44:02.457312","MEAN_MOTION":14.86205638,"ECCENTRICITY":0.00516913,"INCLINATION":98.6505,"RA_OF_ASC_NODE":139.989,"ARG_OF_PERICENTER":207.0218,"MEAN_ANOMALY":152.8303,"EPHEMERIS_TYPE":0,"CLASSIFICATION_TYPE":"U","NORAD_CAT_ID":54487,"ELEMENT_SET_NO":999,"REV_AT_EPOCH":17416,"BSTAR":0.0036752124,"MEAN_MOTION_DOT":0.00033148,"MEAN_MOTION_DDOT":0}]
